{"type": "FeatureCollection", "name": "osm_aligned_flood_roads", "features": [{"type": "Feature", "properties": {"road_id": "SR001", "name": "Synthetic Main Road", "road_class": "primary", "speed_kph": 40, "source": "OSM via OSRM", "osm_distance_m": 8154.3}, "geometry": {"coordinates": [[80.179589, 12.904801], [80.179511, 12.904818], [80.179306, 12.904863], [80.179025, 12.904923], [80.17874, 12.904985], [80.178105, 12.905123], [80.178154, 12.905416], [80.178245, 12.905949], [80.178286, 12.906193], [80.178387, 12.906788], [80.178745, 12.908276], [80.178844, 12.908681], [80.178959, 12.909159], [80.179041, 12.909503], [80.179153, 12.910119], [80.179214, 12.910448], [80.179242, 12.910603], [80.179265, 12.910832], [80.17929, 12.91103], [80.179278, 12.91112], [80.179223, 12.911194], [80.179242, 12.91161], [80.179254, 12.911879], [80.179267, 12.912154], [80.179283, 12.912519], [80.179299, 12.912871], [80.179304, 12.91299], [80.179317, 12.913278], [80.179351, 12.913474], [80.179415, 12.913667], [80.179303, 12.913793], [80.179247, 12.913901], [80.179189, 12.914015], [80.179011, 12.914365], [80.179112, 12.914402], [80.179122, 12.915021], [80.179171, 12.915597], [80.179193, 12.916202], [80.179194, 12.91623], [80.179176, 12.916582], [80.179175, 12.916608], [80.179155, 12.917046], [80.179135, 12.917505], [80.179065, 12.918269], [80.179014, 12.918537], [80.178958, 12.918824], [80.178899, 12.918932], [80.179286, 12.919173], [80.179445, 12.919247], [80.179683, 12.919332], [80.180343, 12.919485], [80.180826, 12.91959], [80.181652, 12.919771], [80.18232, 12.919925], [80.182902, 12.920055], [80.183688, 12.920233], [80.184374, 12.920395], [80.185004, 12.920541], [80.185205, 12.920578], [80.185343, 12.920587], [80.18543, 12.920587], [80.18554, 12.920579], [80.185627, 12.920564], [80.185727, 12.920538], [80.18585, 12.920484], [80.185936, 12.920438], [80.186022, 12.920374], [80.186157, 12.920274], [80.186594, 12.919931], [80.187099, 12.919542], [80.187653, 12.919098], [80.18881, 12.918177], [80.189062, 12.917981], [80.189211, 12.91788], [80.189394, 12.917776], [80.189628, 12.917658], [80.18972, 12.917616], [80.189847, 12.917572], [80.189986, 12.917527], [80.190093, 12.917498], [80.190209, 12.917476], [80.19036, 12.917455], [80.190465, 12.917442], [80.190765, 12.917407], [80.191495, 12.917339], [80.193252, 12.917157], [80.193477, 12.917137], [80.193645, 12.917127], [80.193709, 12.917127], [80.193789, 12.917131], [80.193909, 12.917141], [80.194037, 12.91717], [80.194181, 12.917223], [80.194271, 12.917272], [80.194386, 12.917365], [80.194511, 12.917487], [80.195352, 12.918376], [80.195781, 12.918833], [80.19584, 12.918901], [80.19597, 12.919049], [80.196098, 12.919217], [80.196174, 12.919324], [80.196233, 12.919413], [80.196296, 12.919515], [80.196356, 12.919622], [80.196409, 12.919719], [80.196448, 12.919806], [80.1965, 12.919934], [80.19656, 12.920111], [80.196658, 12.920461], [80.196705, 12.920635], [80.196736, 12.920738], [80.196799, 12.920973], [80.196846, 12.921095], [80.196887, 12.921205], [80.197075, 12.921735], [80.19709, 12.921777], [80.197182, 12.922014], [80.197241, 12.922211], [80.197272, 12.92238], [80.197308, 12.922669], [80.197323, 12.922788], [80.19734, 12.922886], [80.197362, 12.923122], [80.197391, 12.923327], [80.197421, 12.923798], [80.197445, 12.924731], [80.197455, 12.925106], [80.197464, 12.925421], [80.197468, 12.925598], [80.197469, 12.92563], [80.197477, 12.925949], [80.197486, 12.926049], [80.197492, 12.92611], [80.197504, 12.926237], [80.197534, 12.926351], [80.19761, 12.926633], [80.197712, 12.926868], [80.197714, 12.926873], [80.197734, 12.92692], [80.19783, 12.927084], [80.197853, 12.927124], [80.198063, 12.927442], [80.198249, 12.927661], [80.198304, 12.927709], [80.198393, 12.92779], [80.198717, 12.927981], [80.199228, 12.928198], [80.199338, 12.928243], [80.199657, 12.928377], [80.200038, 12.928475], [80.201231, 12.928595], [80.201719, 12.928626], [80.201865, 12.928635], [80.201891, 12.928637], [80.202161, 12.928653], [80.202333, 12.928676], [80.202448, 12.928728], [80.202518, 12.928781], [80.202556, 12.928864], [80.202599, 12.929019], [80.202735, 12.93007], [80.202805, 12.93042], [80.202859, 12.930697], [80.202915, 12.930956], [80.203032, 12.93127], [80.20316, 12.931615], [80.203239, 12.931844], [80.203369, 12.932219], [80.203423, 12.932382], [80.203508, 12.932636], [80.203516, 12.932661], [80.203664, 12.933128], [80.203766, 12.933406], [80.203791, 12.933491], [80.203823, 12.933615], [80.203835, 12.933684], [80.20386, 12.93392], [80.20388, 12.9342], [80.203891, 12.934349], [80.20393, 12.934774], [80.203966, 12.934932], [80.204002, 12.935061], [80.204034, 12.935155], [80.204077, 12.935241], [80.204332, 12.935792], [80.204369, 12.935893], [80.204434, 12.93612], [80.204754, 12.937162], [80.204769, 12.937219], [80.205002, 12.938091], [80.205082, 12.93839], [80.205438, 12.939584], [80.205552, 12.939997], [80.205569, 12.940051], [80.205586, 12.940102], [80.205681, 12.940426], [80.205775, 12.940721], [80.205859, 12.940961], [80.205971, 12.941215], [80.206163, 12.941546], [80.206254, 12.941672], [80.206384, 12.941859], [80.206617, 12.942156], [80.206843, 12.942428], [80.207062, 12.942653], [80.207175, 12.942753], [80.207253, 12.942811], [80.207354, 12.942715], [80.207172, 12.942544], [80.207141, 12.942518], [80.206951, 12.942338], [80.206737, 12.942091], [80.206678, 12.942016], [80.206456, 12.941752], [80.206214, 12.941363], [80.206097, 12.941172], [80.205887, 12.940688], [80.205707, 12.940074], [80.205163, 12.938361], [80.204963, 12.937657], [80.204924, 12.93748], [80.204894, 12.937344], [80.204577, 12.936264], [80.204439, 12.935775], [80.205261, 12.935759], [80.205542, 12.935744], [80.206686, 12.935805], [80.206718, 12.935031]], "type": "LineString"}}, {"type": "Feature", "properties": {"road_id": "SR002", "name": "Synthetic Lake Road", "road_class": "secondary", "speed_kph": 30, "source": "OSM via OSRM", "osm_distance_m": 7235.9}, "geometry": {"coordinates": [[80.188081, 12.901448], [80.188081, 12.901448], [80.18826, 12.901403], [80.18853, 12.901326], [80.188595, 12.90159], [80.188642, 12.901781], [80.188806, 12.902452], [80.188994, 12.903664], [80.188936, 12.903678], [80.188735, 12.90372], [80.188803, 12.904145], [80.188873, 12.904529], [80.189135, 12.906013], [80.189545, 12.905961], [80.189847, 12.905924], [80.189914, 12.906381], [80.18941, 12.906464], [80.188991, 12.906515], [80.188927, 12.906541], [80.189565, 12.907397], [80.189626, 12.907482], [80.190339, 12.908402], [80.191003, 12.909291], [80.191182, 12.90952], [80.191426, 12.909831], [80.191447, 12.909858], [80.191484, 12.909907], [80.191544, 12.910001], [80.191578, 12.910093], [80.19159, 12.910171], [80.191634, 12.910449], [80.191636, 12.910463], [80.191686, 12.910789], [80.191733, 12.911089], [80.191829, 12.911942], [80.191872, 12.912325], [80.191877, 12.912373], [80.191924, 12.912786], [80.191941, 12.912944], [80.191964, 12.91315], [80.191974, 12.913238], [80.192038, 12.913819], [80.192065, 12.914063], [80.192093, 12.914315], [80.192106, 12.914435], [80.192126, 12.914658], [80.192136, 12.914745], [80.192151, 12.914878], [80.192161, 12.914992], [80.19219, 12.915516], [80.192195, 12.915588], [80.192201, 12.915646], [80.192219, 12.916023], [80.192261, 12.916927], [80.192272, 12.917082], [80.19212, 12.917098], [80.191739, 12.917137], [80.191679, 12.917139], [80.191231, 12.917174], [80.190882, 12.917206], [80.190416, 12.917255], [80.189926, 12.917339], [80.189629, 12.917435], [80.189329, 12.917535], [80.189118, 12.917659], [80.189121, 12.917753], [80.189127, 12.917799], [80.189033, 12.917847], [80.188844, 12.917967], [80.188172, 12.918518], [80.188139, 12.918544], [80.188088, 12.918584], [80.187888, 12.918758], [80.187437, 12.919134], [80.187289, 12.919259], [80.186995, 12.919488], [80.186544, 12.91984], [80.186156, 12.920143], [80.185926, 12.920333], [80.185866, 12.920383], [80.185744, 12.92045], [80.185589, 12.920485], [80.185375, 12.920495], [80.185182, 12.920487], [80.185053, 12.920462], [80.18484, 12.920407], [80.184637, 12.920361], [80.184463, 12.920322], [80.184296, 12.920284], [80.184058, 12.920223], [80.183998, 12.920416], [80.183938, 12.920599], [80.183676, 12.921346], [80.183587, 12.9216], [80.183497, 12.921847], [80.183358, 12.922242], [80.183141, 12.922785], [80.183102, 12.923001], [80.182995, 12.923717], [80.182836, 12.924564], [80.182731, 12.925038], [80.182648, 12.925398], [80.182606, 12.925474], [80.182419, 12.92654], [80.182364, 12.926893], [80.18228, 12.92738], [80.182179, 12.927774], [80.18207, 12.928208], [80.181954, 12.928703], [80.181843, 12.929148], [80.181765, 12.929456], [80.181653, 12.92981], [80.181535, 12.930268], [80.18146, 12.930574], [80.18143, 12.930761], [80.181447, 12.931048], [80.181546, 12.931527], [80.181653, 12.93204], [80.181752, 12.932517], [80.181772, 12.932662], [80.181872, 12.933103], [80.182106, 12.934224], [80.182183, 12.934592], [80.182322, 12.935259], [80.182347, 12.935378], [80.182339, 12.935439], [80.182262, 12.936057], [80.182227, 12.936335], [80.182229, 12.936708], [80.18223, 12.936823], [80.182231, 12.937171], [80.182234, 12.937848], [80.182235, 12.937906], [80.182241, 12.938331], [80.182359, 12.938794], [80.182443, 12.939126], [80.182491, 12.939312], [80.182568, 12.939614], [80.182581, 12.939679], [80.182668, 12.940106], [80.182703, 12.940363], [80.182727, 12.940619], [80.182788, 12.940609], [80.183644, 12.940693], [80.184095, 12.940739], [80.18484, 12.940814], [80.185068, 12.940837], [80.185311, 12.940973], [80.186155, 12.941389], [80.186442, 12.941535], [80.186681, 12.941542], [80.186956, 12.94155], [80.187012, 12.941584], [80.187219, 12.941597], [80.187626, 12.941584], [80.188181, 12.941589], [80.188258, 12.94159], [80.188732, 12.941602], [80.18876, 12.941604], [80.189248, 12.94164], [80.189683, 12.941676], [80.190065, 12.941735], [80.190309, 12.941864], [80.190322, 12.941875], [80.190443, 12.941981], [80.190608, 12.942068], [80.190826, 12.942127], [80.191007, 12.942159], [80.191273, 12.942185], [80.191618, 12.942244], [80.191759, 12.942349], [80.191844, 12.942498], [80.191897, 12.942674], [80.191942, 12.942839], [80.192022, 12.942952], [80.192346, 12.94294], [80.193089, 12.942872], [80.193844, 12.942804], [80.193958, 12.942797], [80.194123, 12.94279], [80.194284, 12.942763], [80.194461, 12.942712], [80.194596, 12.942682], [80.194772, 12.942596], [80.194845, 12.942578], [80.194951, 12.942551], [80.195003, 12.942529], [80.194976, 12.942408], [80.194976, 12.942298], [80.19496, 12.942173], [80.194938, 12.942032], [80.194927, 12.941896], [80.194915, 12.941738], [80.194903, 12.941445], [80.194879, 12.941446], [80.194895, 12.941402], [80.194862, 12.940842], [80.194737, 12.940433], [80.194805, 12.940396], [80.195345, 12.940284], [80.195858, 12.940156], [80.195855, 12.94005], [80.195852, 12.940038]], "type": "LineString"}}, {"type": "Feature", "properties": {"road_id": "SR003", "name": "Synthetic East Link", "road_class": "secondary", "speed_kph": 35, "source": "OSM via OSRM", "osm_distance_m": 6074.6}, "geometry": {"coordinates": [[80.195852, 12.940038], [80.195855, 12.94005], [80.195858, 12.940156], [80.195345, 12.940284], [80.194805, 12.940396], [80.194737, 12.940433], [80.194862, 12.940842], [80.194895, 12.941402], [80.194879, 12.941446], [80.194577, 12.941482], [80.194508, 12.941481], [80.194262, 12.941515], [80.194048, 12.941548], [80.193882, 12.941577], [80.19382, 12.94158], [80.193835, 12.941678], [80.193849, 12.941776], [80.193855, 12.941901], [80.193855, 12.941987], [80.193855, 12.942074], [80.19385, 12.942179], [80.19384, 12.942258], [80.193834, 12.942408], [80.19383, 12.942601], [80.193841, 12.942729], [80.193844, 12.942804], [80.193935, 12.943187], [80.194057, 12.9437], [80.194274, 12.944618], [80.194297, 12.944659], [80.194317, 12.944695], [80.194457, 12.944945], [80.19461, 12.945217], [80.194693, 12.945366], [80.194794, 12.945604], [80.194822, 12.945658], [80.194908, 12.945827], [80.195194, 12.946561], [80.195279, 12.946963], [80.195383, 12.947372], [80.195455, 12.947808], [80.195454, 12.947832], [80.195499, 12.948084], [80.195531, 12.948266], [80.195567, 12.948481], [80.19557, 12.948568], [80.195655, 12.948567], [80.195695, 12.948566], [80.196569, 12.948557], [80.19695, 12.948553], [80.197478, 12.948548], [80.197854, 12.948544], [80.198932, 12.948588], [80.19993, 12.948615], [80.203086, 12.948714], [80.203113, 12.948715], [80.203138, 12.948716], [80.204045, 12.948737], [80.204297, 12.94874], [80.206357, 12.948783], [80.206908, 12.948744], [80.207137, 12.948727], [80.2077, 12.948687], [80.208428, 12.948632], [80.208821, 12.948603], [80.208947, 12.9486], [80.208984, 12.9486], [80.209821, 12.948581], [80.21018, 12.948523], [80.210832, 12.94851], [80.211033, 12.948506], [80.211248, 12.948518], [80.211428, 12.948528], [80.211444, 12.948529], [80.211561, 12.94853], [80.213276, 12.948608], [80.213373, 12.948616], [80.214514, 12.948713], [80.21467, 12.948727], [80.215309, 12.948793], [80.215416, 12.948804], [80.216502, 12.948916], [80.216588, 12.948926], [80.216604, 12.948928], [80.217412, 12.949009], [80.217512, 12.94902], [80.217805, 12.94905], [80.217964, 12.949068], [80.218457, 12.949118], [80.218794, 12.949152], [80.218886, 12.949161], [80.220153, 12.949287], [80.220268, 12.9493], [80.220673, 12.949342], [80.221127, 12.949389], [80.221238, 12.949403], [80.222278, 12.949467], [80.222379, 12.949473], [80.222551, 12.949482], [80.222572, 12.949484], [80.222965, 12.949508], [80.223049, 12.949513], [80.223299, 12.949528], [80.223466, 12.949537], [80.225834, 12.94969], [80.226015, 12.9497], [80.227956, 12.949791], [80.228475, 12.949816], [80.229202, 12.94985], [80.231138, 12.949941], [80.231495, 12.949969], [80.231848, 12.949996], [80.231968, 12.950008], [80.23322, 12.950104], [80.233825, 12.95014], [80.234428, 12.950122], [80.234658, 12.950101], [80.234815, 12.950087], [80.234794, 12.94995], [80.234773, 12.949849], [80.234739, 12.949615], [80.234723, 12.94942], [80.234708, 12.949313], [80.234667, 12.948999], [80.234609, 12.948403], [80.234602, 12.948336], [80.234591, 12.948055], [80.234582, 12.947884], [80.23458, 12.94783], [80.234568, 12.947661], [80.234546, 12.947393], [80.23454, 12.947266], [80.234495, 12.947061], [80.234457, 12.94689], [80.23441, 12.946671], [80.23436, 12.94646], [80.234307, 12.946244], [80.234203, 12.945848], [80.233576, 12.945899], [80.233306, 12.945946], [80.233095, 12.945979], [80.23295, 12.946005], [80.232909, 12.946024], [80.232901, 12.946029], [80.232878, 12.946042], [80.232847, 12.94606], [80.232787, 12.946087]], "type": "LineString"}}, {"type": "Feature", "properties": {"road_id": "SR004", "name": "Synthetic Marsh Edge Road", "road_class": "tertiary", "speed_kph": 25, "source": "OSM via OSRM", "osm_distance_m": 11473.6}, "geometry": {"coordinates": [[80.193274, 12.925138], [80.193274, 12.925138], [80.19332, 12.925793], [80.193678, 12.925791], [80.194389, 12.92582], [80.194893, 12.925814], [80.194923, 12.92559], [80.195282, 12.925557], [80.195292, 12.925814], [80.19533, 12.926092], [80.195352, 12.926213], [80.195377, 12.926245], [80.195403, 12.92625], [80.195774, 12.926234], [80.197492, 12.92611], [80.197596, 12.926099], [80.19758, 12.925908], [80.197574, 12.92557], [80.197569, 12.925421], [80.197531, 12.9247], [80.197524, 12.924049], [80.197528, 12.923748], [80.197513, 12.923303], [80.197435, 12.9228], [80.197348, 12.922177], [80.197303, 12.922007], [80.19722, 12.921738], [80.196964, 12.921041], [80.196887, 12.920847], [80.196775, 12.920518], [80.196796, 12.920413], [80.196779, 12.920293], [80.196727, 12.920115], [80.196675, 12.919922], [80.196634, 12.919797], [80.196599, 12.919691], [80.196544, 12.919579], [80.196491, 12.91947], [80.196435, 12.919377], [80.196315, 12.919203], [80.196215, 12.919077], [80.196126, 12.918964], [80.196029, 12.918848], [80.195902, 12.918705], [80.195701, 12.918484], [80.194679, 12.917348], [80.194583, 12.917239], [80.194532, 12.917182], [80.194417, 12.917079], [80.194238, 12.916994], [80.194262, 12.916905], [80.194361, 12.916423], [80.194532, 12.915587], [80.194793, 12.914408], [80.194954, 12.913639], [80.195015, 12.913324], [80.195027, 12.913267], [80.195138, 12.912762], [80.195299, 12.912474], [80.195326, 12.912426], [80.195358, 12.912378], [80.195503, 12.91216], [80.195884, 12.911585], [80.195899, 12.911563], [80.196235, 12.911117], [80.196385, 12.910903], [80.196482, 12.910771], [80.196683, 12.910485], [80.196825, 12.910313], [80.196924, 12.910159], [80.196999, 12.910035], [80.197343, 12.909546], [80.197353, 12.909532], [80.197386, 12.909487], [80.197614, 12.909161], [80.197802, 12.908893], [80.198371, 12.908084], [80.198592, 12.907846], [80.198767, 12.907778], [80.19884, 12.907763], [80.198996, 12.907751], [80.199882, 12.90771], [80.200152, 12.907683], [80.201301, 12.907611], [80.201921, 12.907564], [80.202465, 12.907586], [80.203103, 12.90755], [80.203211, 12.907546], [80.203401, 12.907514], [80.203495, 12.907489], [80.20385, 12.907427], [80.204203, 12.907329], [80.204363, 12.90726], [80.204455, 12.907219], [80.204574, 12.907168], [80.205018, 12.906838], [80.205387, 12.906619], [80.20563, 12.906506], [80.206787, 12.906035], [80.207747, 12.905632], [80.20795, 12.905542], [80.208036, 12.905507], [80.208104, 12.905486], [80.208164, 12.905464], [80.208422, 12.905354], [80.209208, 12.904979], [80.20972, 12.904778], [80.210861, 12.904333], [80.210978, 12.904287], [80.212938, 12.903518], [80.213133, 12.903441], [80.214788, 12.902791], [80.214864, 12.902761], [80.216786, 12.902009], [80.217343, 12.901855], [80.217513, 12.901819], [80.218057, 12.90174], [80.218217, 12.901723], [80.218314, 12.901709], [80.218399, 12.901699], [80.220019, 12.901501], [80.220355, 12.90146], [80.220573, 12.901434], [80.222218, 12.901233], [80.222289, 12.901225], [80.222462, 12.901195], [80.222966, 12.90116], [80.223621, 12.901108], [80.22385, 12.901099], [80.224262, 12.901092], [80.227721, 12.901015], [80.227755, 12.901021], [80.227782, 12.901034], [80.227795, 12.901046], [80.227801, 12.901059], [80.227814, 12.901311], [80.227913, 12.90144], [80.227918, 12.901553], [80.227921, 12.901634], [80.227975, 12.902559], [80.227988, 12.902789], [80.228017, 12.903286], [80.228045, 12.903838], [80.228055, 12.904022], [80.228057, 12.904058], [80.228063, 12.904182], [80.228068, 12.904267], [80.228137, 12.90542], [80.228152, 12.905667], [80.228164, 12.905875], [80.22821, 12.906647], [80.228214, 12.90672], [80.228242, 12.906986], [80.228314, 12.907558], [80.228355, 12.907843], [80.228425, 12.908325], [80.228545, 12.909028], [80.228551, 12.909068], [80.228781, 12.910577], [80.228799, 12.910695], [80.228847, 12.911013], [80.228898, 12.911349], [80.228959, 12.911748], [80.229094, 12.912638], [80.229109, 12.912751], [80.229353, 12.914666], [80.229591, 12.916223], [80.22963, 12.91651], [80.229719, 12.917164], [80.229778, 12.917597], [80.229828, 12.917965], [80.229981, 12.9191], [80.230185, 12.92072], [80.230353, 12.921962], [80.23053, 12.923147], [80.230519, 12.923322], [80.230501, 12.923476], [80.23062, 12.924387], [80.230689, 12.924594], [80.230923, 12.926303], [80.231129, 12.927719], [80.231157, 12.92794], [80.231294, 12.929011], [80.231402, 12.929467], [80.231538, 12.930045], [80.231576, 12.930186], [80.231682, 12.930573], [80.231704, 12.930655], [80.231725, 12.930733], [80.23175, 12.930809], [80.232034, 12.931679], [80.232082, 12.931824], [80.232261, 12.932386], [80.232397, 12.932748], [80.232574, 12.933212], [80.23265, 12.933386], [80.23276, 12.933665], [80.23279, 12.933743], [80.233084, 12.934357], [80.233264, 12.934733], [80.233622, 12.935487], [80.233681, 12.935612], [80.233683, 12.935616], [80.233773, 12.935809], [80.233827, 12.935926], [80.233804, 12.936175], [80.233908, 12.936391], [80.234032, 12.936619], [80.234091, 12.936719], [80.234132, 12.936788], [80.234181, 12.936875], [80.234226, 12.936961], [80.234471, 12.93747], [80.234815, 12.938172], [80.234969, 12.938493], [80.235111, 12.938788], [80.235199, 12.938976], [80.235452, 12.939493], [80.235563, 12.939778], [80.235602, 12.93987], [80.235631, 12.939933], [80.235742, 12.940146], [80.234733, 12.940435], [80.234665, 12.940216], [80.234193, 12.940376], [80.233819, 12.940518], [80.233805, 12.940523], [80.233446, 12.94065], [80.233296, 12.94029], [80.232923, 12.94042], [80.231931, 12.940709], [80.231737, 12.940245], [80.231299, 12.940369], [80.230889, 12.940456], [80.230808, 12.940473], [80.230479, 12.940547], [80.230383, 12.940159], [80.230378, 12.94013], [80.2303, 12.939887], [80.230212, 12.939647], [80.229778, 12.939765]], "type": "LineString"}}, {"type": "Feature", "properties": {"road_id": "SR005", "name": "Synthetic North Connector", "road_class": "secondary", "speed_kph": 35, "source": "OSM via OSRM", "osm_distance_m": 5439.7}, "geometry": {"coordinates": [[80.187073, 12.959987], [80.187088, 12.960072], [80.187182, 12.960652], [80.187229, 12.960647], [80.187163, 12.960062], [80.187138, 12.959819], [80.187119, 12.959463], [80.187104, 12.959168], [80.187105, 12.958841], [80.187095, 12.958496], [80.187089, 12.958322], [80.187088, 12.958066], [80.187088, 12.957926], [80.187087, 12.957744], [80.187074, 12.957171], [80.187077, 12.957], [80.187075, 12.956862], [80.187053, 12.95666], [80.187026, 12.956315], [80.187013, 12.956167], [80.186999, 12.955955], [80.186936, 12.955593], [80.186818, 12.955115], [80.186807, 12.955043], [80.186719, 12.954455], [80.18666, 12.954063], [80.186588, 12.953586], [80.186528, 12.953158], [80.186495, 12.952921], [80.186453, 12.95269], [80.186281, 12.952013], [80.186219, 12.951803], [80.186044, 12.951216], [80.185801, 12.950569], [80.185697, 12.950257], [80.185602, 12.95001], [80.185545, 12.949863], [80.185513, 12.949779], [80.185509, 12.949765], [80.185466, 12.949611], [80.185432, 12.949487], [80.185383, 12.949327], [80.185741, 12.949306], [80.186055, 12.949284], [80.186531, 12.94925], [80.186549, 12.949249], [80.187843, 12.949134], [80.188099, 12.949111], [80.188502, 12.949007], [80.188629, 12.948998], [80.188853, 12.94897], [80.189032, 12.948947], [80.189051, 12.948945], [80.18939, 12.948845], [80.189462, 12.948839], [80.189669, 12.94882], [80.190166, 12.948775], [80.190863, 12.948711], [80.191953, 12.948671], [80.192572, 12.948665], [80.192641, 12.948662], [80.193638, 12.948619], [80.194279, 12.948599], [80.194759, 12.948585], [80.195472, 12.94857], [80.19557, 12.948568], [80.195655, 12.948567], [80.195695, 12.948566], [80.196569, 12.948557], [80.19695, 12.948553], [80.197478, 12.948548], [80.197854, 12.948544], [80.198932, 12.948588], [80.19993, 12.948615], [80.203086, 12.948714], [80.203113, 12.948715], [80.203138, 12.948716], [80.204045, 12.948737], [80.204297, 12.94874], [80.206357, 12.948783], [80.206908, 12.948744], [80.207137, 12.948727], [80.2077, 12.948687], [80.208428, 12.948632], [80.208821, 12.948603], [80.208947, 12.9486], [80.208984, 12.9486], [80.209821, 12.948581], [80.21018, 12.948523], [80.210832, 12.94851], [80.211033, 12.948506], [80.211248, 12.948518], [80.211428, 12.948528], [80.211444, 12.948529], [80.211561, 12.94853], [80.213276, 12.948608], [80.213373, 12.948616], [80.214514, 12.948713], [80.21467, 12.948727], [80.215309, 12.948793], [80.215416, 12.948804], [80.216502, 12.948916], [80.216588, 12.948926], [80.216604, 12.948928], [80.217412, 12.949009], [80.217512, 12.94902], [80.217805, 12.94905], [80.217964, 12.949068], [80.218457, 12.949118], [80.218794, 12.949152], [80.218886, 12.949161], [80.220153, 12.949287], [80.220268, 12.9493], [80.220673, 12.949342], [80.221127, 12.949389], [80.221238, 12.949403], [80.222278, 12.949467], [80.222283, 12.949372], [80.221758, 12.949336]], "type": "LineString"}}, {"type": "Feature", "properties": {"road_id": "SR006", "name": "Synthetic Safe Detour", "road_class": "primary", "speed_kph": 45, "source": "OSM via OSRM", "osm_distance_m": 11779.3}, "geometry": {"coordinates": [[80.181169, 12.970988], [80.181251, 12.970935], [80.181419, 12.970819], [80.181681, 12.970639], [80.181878, 12.970145], [80.181927, 12.969824], [80.181967, 12.969707], [80.181967, 12.969523], [80.181968, 12.969217], [80.181969, 12.96888], [80.181968, 12.968768], [80.181966, 12.968485], [80.181966, 12.968466], [80.181968, 12.967915], [80.1823, 12.968032], [80.182407, 12.968039], [80.182525, 12.968056], [80.182685, 12.968081], [80.18278, 12.968098], [80.183238, 12.968179], [80.1833, 12.968204], [80.183545, 12.968312], [80.183884, 12.968461], [80.184015, 12.968537], [80.184054, 12.968565], [80.184266, 12.968657], [80.184595, 12.968799], [80.185204, 12.968883], [80.185537, 12.968913], [80.185848, 12.969], [80.186046, 12.969066], [80.186196, 12.969343], [80.186572, 12.969308], [80.186626, 12.969309], [80.187227, 12.969331], [80.187301, 12.969339], [80.187404, 12.969358], [80.187664, 12.969412], [80.187755, 12.969433], [80.187799, 12.969442], [80.1885, 12.96939], [80.188917, 12.969349], [80.189192, 12.969276], [80.189305, 12.969246], [80.189877, 12.969027], [80.189918, 12.969013], [80.189766, 12.968635], [80.189596, 12.968255], [80.189561, 12.968178], [80.189477, 12.96799], [80.189236, 12.967405], [80.189081, 12.967046], [80.189064, 12.967008], [80.188876, 12.966577], [80.188843, 12.966481], [80.188772, 12.966325], [80.18867, 12.966107], [80.188618, 12.965953], [80.18845, 12.965484], [80.188333, 12.965237], [80.188288, 12.965136], [80.188143, 12.964737], [80.188116, 12.964642], [80.188092, 12.964553], [80.188083, 12.964517], [80.187947, 12.964119], [80.187875, 12.963894], [80.187735, 12.963321], [80.187692, 12.963103], [80.187598, 12.962635], [80.187473, 12.962002], [80.187396, 12.961589], [80.187332, 12.961138], [80.187229, 12.960647], [80.187163, 12.960062], [80.187138, 12.959819], [80.187119, 12.959463], [80.187104, 12.959168], [80.187105, 12.958841], [80.187095, 12.958496], [80.187089, 12.958322], [80.187088, 12.958066], [80.187088, 12.957926], [80.187087, 12.957744], [80.187074, 12.957171], [80.187077, 12.957], [80.187075, 12.956862], [80.187053, 12.95666], [80.187026, 12.956315], [80.187013, 12.956167], [80.186999, 12.955955], [80.186936, 12.955593], [80.186818, 12.955115], [80.186807, 12.955043], [80.186719, 12.954455], [80.18666, 12.954063], [80.186588, 12.953586], [80.186528, 12.953158], [80.186495, 12.952921], [80.186453, 12.95269], [80.186281, 12.952013], [80.186219, 12.951803], [80.186044, 12.951216], [80.185801, 12.950569], [80.185697, 12.950257], [80.185602, 12.95001], [80.185545, 12.949863], [80.185513, 12.949779], [80.185509, 12.949765], [80.185466, 12.949611], [80.185432, 12.949487], [80.185383, 12.949327], [80.185741, 12.949306], [80.186055, 12.949284], [80.186531, 12.94925], [80.186549, 12.949249], [80.187843, 12.949134], [80.188099, 12.949111], [80.188502, 12.949007], [80.188629, 12.948998], [80.188853, 12.94897], [80.189032, 12.948947], [80.189051, 12.948945], [80.18939, 12.948845], [80.189462, 12.948839], [80.189669, 12.94882], [80.190166, 12.948775], [80.190863, 12.948711], [80.191953, 12.948671], [80.192572, 12.948665], [80.192641, 12.948662], [80.193638, 12.948619], [80.194279, 12.948599], [80.194759, 12.948585], [80.195472, 12.94857], [80.19557, 12.948568], [80.195655, 12.948567], [80.195695, 12.948566], [80.196569, 12.948557], [80.19695, 12.948553], [80.197478, 12.948548], [80.197854, 12.948544], [80.198932, 12.948588], [80.19993, 12.948615], [80.203086, 12.948714], [80.203113, 12.948715], [80.203138, 12.948716], [80.204045, 12.948737], [80.204297, 12.94874], [80.206357, 12.948783], [80.206908, 12.948744], [80.207137, 12.948727], [80.2077, 12.948687], [80.208428, 12.948632], [80.208821, 12.948603], [80.208947, 12.9486], [80.208984, 12.9486], [80.209821, 12.948581], [80.21018, 12.948523], [80.210832, 12.94851], [80.211033, 12.948506], [80.211248, 12.948518], [80.211428, 12.948528], [80.211444, 12.948529], [80.211561, 12.94853], [80.213276, 12.948608], [80.213373, 12.948616], [80.214514, 12.948713], [80.21467, 12.948727], [80.215309, 12.948793], [80.215416, 12.948804], [80.216502, 12.948916], [80.216588, 12.948926], [80.216604, 12.948928], [80.217412, 12.949009], [80.217512, 12.94902], [80.217805, 12.94905], [80.217964, 12.949068], [80.218457, 12.949118], [80.218794, 12.949152], [80.218886, 12.949161], [80.220153, 12.949287], [80.220268, 12.9493], [80.220673, 12.949342], [80.221127, 12.949389], [80.221238, 12.949403], [80.222278, 12.949467], [80.222379, 12.949473], [80.222551, 12.949482], [80.222572, 12.949484], [80.222965, 12.949508], [80.223049, 12.949513], [80.223299, 12.949528], [80.223466, 12.949537], [80.225834, 12.94969], [80.226015, 12.9497], [80.227956, 12.949791], [80.228475, 12.949816], [80.229202, 12.94985], [80.231138, 12.949941], [80.231495, 12.949969], [80.231848, 12.949996], [80.231968, 12.950008], [80.23322, 12.950104], [80.233825, 12.95014], [80.234428, 12.950122], [80.234658, 12.950101], [80.234815, 12.950087], [80.234937, 12.950075], [80.235121, 12.950052], [80.235441, 12.950007], [80.236347, 12.949879], [80.236732, 12.949828], [80.237724, 12.949699], [80.237933, 12.949673], [80.237976, 12.950106], [80.238033, 12.950426], [80.238059, 12.950568], [80.238133, 12.950759], [80.238205, 12.950966], [80.238264, 12.951145], [80.238395, 12.951402], [80.238599, 12.9518], [80.238841, 12.952318], [80.238887, 12.952519], [80.238893, 12.952895], [80.238893, 12.952931], [80.238921, 12.953118], [80.238974, 12.953282], [80.239006, 12.95355], [80.23902, 12.953584], [80.23913, 12.953917], [80.239207, 12.954209], [80.239394, 12.95488], [80.239089, 12.954911], [80.238808, 12.954939], [80.238699, 12.95495], [80.238628, 12.954957], [80.238444, 12.954969], [80.238039, 12.954996], [80.237657, 12.955022], [80.237543, 12.955034], [80.237466, 12.955041], [80.237193, 12.95507], [80.23714, 12.955074], [80.236973, 12.95509], [80.236822, 12.955103], [80.236572, 12.955103], [80.236071, 12.955103], [80.234986, 12.9552], [80.234851, 12.955172], [80.234657, 12.955114], [80.234107, 12.954847], [80.233337, 12.954599], [80.232527, 12.954361], [80.231554, 12.954168], [80.230427, 12.95396], [80.229497, 12.953874], [80.228657, 12.953958], [80.227796, 12.954044], [80.227406, 12.95412], [80.226859, 12.954242], [80.225919, 12.954486], [80.225438, 12.954608], [80.225161, 12.954658], [80.223463, 12.954958], [80.222796, 12.955096], [80.22213, 12.955234], [80.222059, 12.95525]], "type": "LineString"}}]}