{"type":"FeatureCollection","name":"synthetic_roads","features":[{"type":"Feature","properties":{"road_id":"SR001","name":"Synthetic Main Road","road_class":"primary","speed_kph":40},"geometry":{"type":"LineString","coordinates":[[80.1805,12.905],[80.189,12.915],[80.198,12.925],[80.207,12.935]]}},{"type":"Feature","properties":{"road_id":"SR002","name":"Synthetic Lake Road","road_class":"secondary","speed_kph":30},"geometry":{"type":"LineString","coordinates":[[80.187,12.9],[80.19,12.912],[80.193,12.925],[80.196,12.94]]}},{"type":"Feature","properties":{"road_id":"SR003","name":"Synthetic East Link","road_class":"secondary","speed_kph":35},"geometry":{"type":"LineString","coordinates":[[80.196,12.94],[80.207,12.942],[80.218,12.944],[80.232,12.946]]}},{"type":"Feature","properties":{"road_id":"SR004","name":"Synthetic Marsh Edge Road","road_class":"tertiary","speed_kph":25},"geometry":{"type":"LineString","coordinates":[[80.193,12.925],[80.204,12.93],[80.216,12.935],[80.228,12.94]]}},{"type":"Feature","properties":{"road_id":"SR005","name":"Synthetic North Connector","road_class":"secondary","speed_kph":35},"geometry":{"type":"LineString","coordinates":[[80.187,12.96],[80.198,12.955],[80.21,12.95],[80.222,12.946]]}},{"type":"Feature","properties":{"road_id":"SR006","name":"Synthetic Safe Detour","road_class":"primary","speed_kph":45},"geometry":{"type":"LineString","coordinates":[[80.1805,12.97],[80.193,12.968],[80.207,12.962],[80.222,12.955]]}}]}
